{
  "type": "FeatureCollection",
  "features": [
    {
      "type": "Feature",
      "properties": {
        "norad_id": 44333,
        "name": "AT&T T-16",
        "group": "intelsat",
        "lat": -0.016784616699944924,
        "lon": -65.37878004878802,
        "alt_km": 35788.68325132934,
        "timestamp": "2025-12-02T21:34:00.941254+00:00",
        "meta_object_name": "AT&T T-16",
        "meta_object_id": "2019-034A",
        "meta_epoch": "2025-12-02T09:32:38.891040",
        "meta_mean_motion": 1.00268471,
        "meta_eccentricity": 5.47e-05,
        "meta_inclination": 0.0272,
        "meta_ra_of_asc_node": 65.2898,
        "meta_arg_of_pericenter": 92.9501,
        "meta_mean_anomaly": 315.5745,
        "meta_ephemeris_type": 0,
        "meta_classification_type": "U",
        "meta_norad_cat_id": 44333,
        "meta_element_set_no": 999,
        "meta_rev_at_epoch": 2366,
        "meta_bstar": 0,
        "meta_mean_motion_dot": -9.4e-07,
        "meta_mean_motion_ddot": 0,
        "tle_line1": "1 44333U 19034A   25336.39767235 -.00000094  00000+0  00000+0 0  9997",
        "tle_line2": "2 44333   0.0272  65.2898 0000547  92.9501 315.5745  1.00268471 23666"
      },
      "geometry": {
        "type": "Point",
        "coordinates": [
          -65.37878004878802,
          -0.016784616699944924
        ]
      }
    },
    {
      "type": "Feature",
      "properties": {
        "norad_id": 44476,
        "name": "INTELSAT 39 (IS-39)",
        "group": "intelsat",
        "lat": 0.02003881567586715,
        "lon": 97.40699549981896,
        "alt_km": 35784.65516618836,
        "timestamp": "2025-12-02T21:34:00.941265+00:00",
        "meta_object_name": "INTELSAT 39 (IS-39)",
        "meta_object_id": "2019-049B",
        "meta_epoch": "2025-12-02T08:56:22.873344",
        "meta_mean_motion": 1.00267705,
        "meta_eccentricity": 0.0001092,
        "meta_inclination": 0.015,
        "meta_ra_of_asc_node": 305.5203,
        "meta_arg_of_pericenter": 208.2763,
        "meta_mean_anomaly": 113.7284,
        "meta_ephemeris_type": 0,
        "meta_classification_type": "U",
        "meta_norad_cat_id": 44476,
        "meta_element_set_no": 999,
        "meta_rev_at_epoch": 2315,
        "meta_bstar": 0,
        "meta_mean_motion_dot": 5.5e-07,
        "meta_mean_motion_ddot": 0,
        "tle_line1": "1 44476U 19049B   25336.37248696  .00000055  00000+0  00000+0 0  9990",
        "tle_line2": "2 44476   0.0150 305.5203 0001092 208.2763 113.7284  1.00267705 23156"
      },
      "geometry": {
        "type": "Point",
        "coordinates": [
          97.40699549981896,
          0.02003881567586715
        ]
      }
    },
    {
      "type": "Feature",
      "properties": {
        "norad_id": 46114,
        "name": "GALAXY 30 (G-30)",
        "group": "intelsat",
        "lat": -0.018940879000688252,
        "lon": -89.51009277328019,
        "alt_km": 35776.32735386479,
        "timestamp": "2025-12-02T21:34:00.941277+00:00",
        "meta_object_name": "GALAXY 30 (G-30)",
        "meta_object_id": "2020-056C",
        "meta_epoch": "2025-12-02T10:45:38.709216",
        "meta_mean_motion": 1.00272614,
        "meta_eccentricity": 0.0002388,
        "meta_inclination": 0.013,
        "meta_ra_of_asc_node": 294.9342,
        "meta_arg_of_pericenter": 315.3424,
        "meta_mean_anomaly": 217.6932,
        "meta_ephemeris_type": 0,
        "meta_classification_type": "U",
        "meta_norad_cat_id": 46114,
        "meta_element_set_no": 999,
        "meta_rev_at_epoch": 1932,
        "meta_bstar": 0,
        "meta_mean_motion_dot": 5.7e-07,
        "meta_mean_motion_ddot": 0,
        "tle_line1": "1 46114U 20056C   25336.44836469  .00000057  00000+0  00000+0 0  9992",
        "tle_line2": "2 46114   0.0130 294.9342 0002388 315.3424 217.6932  1.00272614 19326"
      },
      "geometry": {
        "type": "Point",
        "coordinates": [
          -89.51009277328019,
          -0.018940879000688252
        ]
      }
    },
    {
      "type": "Feature",
      "properties": {
        "norad_id": 54026,
        "name": "GALAXY 33 (G-33)",
        "group": "intelsat",
        "lat": -0.03212057249785176,
        "lon": -97.51198169160286,
        "alt_km": 35777.94474168042,
        "timestamp": "2025-12-02T21:34:00.941288+00:00",
        "meta_object_name": "GALAXY 33 (G-33)",
        "meta_object_id": "2022-128A",
        "meta_epoch": "2025-12-02T11:02:38.577408",
        "meta_mean_motion": 1.00272387,
        "meta_eccentricity": 0.0001945,
        "meta_inclination": 0.0132,
        "meta_ra_of_asc_node": 331.7136,
        "meta_arg_of_pericenter": 275.0197,
        "meta_mean_anomaly": 217.4995,
        "meta_ephemeris_type": 0,
        "meta_classification_type": "U",
        "meta_norad_cat_id": 54026,
        "meta_element_set_no": 999,
        "meta_rev_at_epoch": 1177,
        "meta_bstar": 0,
        "meta_mean_motion_dot": 9.9e-07,
        "meta_mean_motion_ddot": 0,
        "tle_line1": "1 54026U 22128A   25336.46016872  .00000099  00000+0  00000+0 0  9991",
        "tle_line2": "2 54026   0.0132 331.7136 0001945 275.0197 217.4995  1.00272387 11772"
      },
      "geometry": {
        "type": "Point",
        "coordinates": [
          -97.51198169160286,
          -0.03212057249785176
        ]
      }
    },
    {
      "type": "Feature",
      "properties": {
        "norad_id": 54027,
        "name": "GALAXY 34 (G-34)",
        "group": "intelsat",
        "lat": -0.030328135129766096,
        "lon": -93.51711803484835,
        "alt_km": 35779.990019465884,
        "timestamp": "2025-12-02T21:34:00.941300+00:00",
        "meta_object_name": "GALAXY 34 (G-34)",
        "meta_object_id": "2022-128B",
        "meta_epoch": "2025-12-02T10:45:38.709216",
        "meta_mean_motion": 1.00273114,
        "meta_eccentricity": 0.0001418,
        "meta_inclination": 0.0144,
        "meta_ra_of_asc_node": 321.8387,
        "meta_arg_of_pericenter": 285.835,
        "meta_mean_anomaly": 216.2925,
        "meta_ephemeris_type": 0,
        "meta_classification_type": "U",
        "meta_norad_cat_id": 54027,
        "meta_element_set_no": 999,
        "meta_rev_at_epoch": 1194,
        "meta_bstar": 0,
        "meta_mean_motion_dot": 7.9e-07,
        "meta_mean_motion_ddot": 0,
        "tle_line1": "1 54027U 22128B   25336.44836469  .00000079  00000+0  00000+0 0  9990",
        "tle_line2": "2 54027   0.0144 321.8387 0001418 285.8350 216.2925  1.00273114 11947"
      },
      "geometry": {
        "type": "Point",
        "coordinates": [
          -93.51711803484835,
          -0.030328135129766096
        ]
      }
    },
    {
      "type": "Feature",
      "properties": {
        "norad_id": 54243,
        "name": "GALAXY 31 (G-31)",
        "group": "intelsat",
        "lat": -0.02730025623874134,
        "lon": -85.54593573627793,
        "alt_km": 35777.43626229256,
        "timestamp": "2025-12-02T21:34:00.941312+00:00",
        "meta_object_name": "GALAXY 31 (G-31)",
        "meta_object_id": "2022-153A",
        "meta_epoch": "2025-12-02T10:45:38.709216",
        "meta_mean_motion": 1.00271586,
        "meta_eccentricity": 0.0002073,
        "meta_inclination": 0.0127,
        "meta_ra_of_asc_node": 330.9706,
        "meta_arg_of_pericenter": 295.3373,
        "meta_mean_anomaly": 205.6338,
        "meta_ephemeris_type": 0,
        "meta_classification_type": "U",
        "meta_norad_cat_id": 54243,
        "meta_element_set_no": 999,
        "meta_rev_at_epoch": 516,
        "meta_bstar": 0,
        "meta_mean_motion_dot": 0,
        "meta_mean_motion_ddot": 0,
        "tle_line1": "1 54243U 22153A   25336.44836469  .00000000  00000+0  00000+0 0  9992",
        "tle_line2": "2 54243   0.0127 330.9706 0002073 295.3373 205.6338  1.00271586  5161"
      },
      "geometry": {
        "type": "Point",
        "coordinates": [
          -85.54593573627793,
          -0.02730025623874134
        ]
      }
    },
    {
      "type": "Feature",
      "properties": {
        "norad_id": 54244,
        "name": "GALAXY 32 (G-32)",
        "group": "intelsat",
        "lat": -0.007485384374990279,
        "lon": -55.52207510172736,
        "alt_km": 35776.10872628167,
        "timestamp": "2025-12-02T21:34:00.941323+00:00",
        "meta_object_name": "GALAXY 32 (G-32)",
        "meta_object_id": "2022-153B",
        "meta_epoch": "2025-12-02T11:10:37.032096",
        "meta_mean_motion": 1.0027048,
        "meta_eccentricity": 0.0002464,
        "meta_inclination": 0.01,
        "meta_ra_of_asc_node": 320.0818,
        "meta_arg_of_pericenter": 344.284,
        "meta_mean_anomaly": 203.865,
        "meta_ephemeris_type": 0,
        "meta_classification_type": "U",
        "meta_norad_cat_id": 54244,
        "meta_element_set_no": 999,
        "meta_rev_at_epoch": 1117,
        "meta_bstar": 0,
        "meta_mean_motion_dot": -1.54e-06,
        "meta_mean_motion_ddot": 0,
        "tle_line1": "1 54244U 22153B   25336.46570639 -.00000154  00000+0  00000+0 0  9990",
        "tle_line2": "2 54244   0.0100 320.0818 0002464 344.2840 203.8650  1.00270480 11171"
      },
      "geometry": {
        "type": "Point",
        "coordinates": [
          -55.52207510172736,
          -0.007485384374990279
        ]
      }
    }
  ]
}